NORAD_CAT_ID,OBJECT_NAME,OBJECT_TYPE,EPOCH,MEAN_MOTION,ECCENTRICITY,INCLINATION,RA_OF_ASC_NODE,ARG_OF_PERICENTER,MEAN_ANOMALY,BSTAR,MEAN_MOTION_DOT,MEAN_MOTION_DDOT,TLE_LINE0,TLE_LINE1,TLE_LINE2,SEMIMAJOR_AXIS,PERIOD,APOGEE,PERIGEE,DECAYED
53543.0,STARLINK-4297,PAYLOAD,2024-04-25 13:50:26,15.08842404,0.0001633,53.2179,250.793,60.2709,299.8446,0.00010229,1.34e-05,0.0,0 STARLINK-4297,1 53543U 22101S   24116.57669872  .00001340  00000-0  10229-3 0  9995,2 53543  53.2179 250.7930 0001633  60.2709 299.8446 15.08842404 93866,6917.873,95.437,540.868,538.608,0.0
53543.0,STARLINK-4297,PAYLOAD,2024-04-25 15:25:50,15.08843295,0.0003793,53.2184,250.4964,32.2492,327.8731,0.00027413,4.077e-05,0.0,0 STARLINK-4297,1 53543U 22101S   24116.64294571  .00004077  00000-0  27413-3 0  9996,2 53543  53.2184 250.4964 0003793  32.2492 327.8731 15.08843295 93186,6917.87,95.437,542.359,537.111,0.0
53543.0,STARLINK-4297,PAYLOAD,2024-04-26 15:16:36,15.08852011,0.0002068,53.2174,246.0442,53.5631,306.5551,0.00025572,3.785e-05,0.0,0 STARLINK-4297,1 53543U 22101S   24117.63653880  .00003785  00000-0  25572-3 0  9997,2 53543  53.2174 246.0442 0002068  53.5631 306.5551 15.08852011 94026,6917.844,95.437,541.139,538.278,0.0
53543.0,STARLINK-4297,PAYLOAD,2024-04-27 11:56:37,15.08840335,0.0001395,53.217,242.1771,73.3269,286.7876,2.7563e-05,1.51e-06,0.0,0 STARLINK-4297,1 53543U 22101S   24118.49766044  .00000151  00000-0  27563-4 0  9996,2 53543  53.2170 242.1771 0001395  73.3269 286.7876 15.08840335 93465,6917.879,95.438,540.709,538.779,0.0
53543.0,STARLINK-4297,PAYLOAD,2024-04-27 15:07:23,15.08851135,0.0001388,53.215,241.5834,80.3997,279.7152,0.00057378,8.858e-05,0.0,0 STARLINK-4297,1 53543U 22101S   24118.63013822  .00008858  00000-0  57378-3 0  9999,2 53543  53.2150 241.5834 0001388  80.3997 279.7152 15.08851135 94172,6917.846,95.437,540.672,538.751,0.0
53543.0,STARLINK-4297,PAYLOAD,2024-04-27 18:18:10,15.0886126,0.000128,53.2149,240.9867,81.9025,278.2112,0.0010954,0.00017198,0.0,0 STARLINK-4297,1 53543U 22101S   24118.76261704  .00017198  00000-0  10954-2 0  9992,2 53543  53.2149 240.9867 0001280  81.9025 278.2112 15.08861260 93505,6917.815,95.436,540.566,538.795,0.0
53543.0,STARLINK-4297,PAYLOAD,2024-04-28 13:22:48,15.08819543,0.0001678,53.2175,237.4212,117.0985,243.0179,0.00059172,9.137e-05,0.0,0 STARLINK-4297,1 53543U 22101S   24119.55751142  .00009137  00000-0  59172-3 0  9990,2 53543  53.2175 237.4212 0001678 117.0985 243.0179 15.08819543 93629,6917.943,95.439,540.969,538.647,0.0
53543.0,STARLINK-4297,PAYLOAD,2024-04-28 14:58:12,15.0882861,0.0001499,53.218,237.1248,108.0678,252.0478,0.00071494,0.00011105,0.0,0 STARLINK-4297,1 53543U 22101S   24119.62375145  .00011105  00000-0  71494-3 0  9992,2 53543  53.2180 237.1248 0001499 108.0678 252.0478 15.08828610 94326,6917.915,95.438,540.817,538.743,0.0
53543.0,STARLINK-4297,PAYLOAD,2024-04-29 14:48:59,15.08852043,0.0001493,53.2174,232.6653,114.4089,245.7059,0.00090062,0.00014079,0.0,0 STARLINK-4297,1 53543U 22101S   24120.61735253  .00014079  00000-0  90062-3 0  9998,2 53543  53.2174 232.6653 0001493 114.4089 245.7059 15.08852043 94477,6917.844,95.437,540.741,538.676,0.0
53543.0,STARLINK-4297,PAYLOAD,2024-04-30 00:21:17,15.08854857,0.0001329,53.2173,230.8799,98.8007,261.3136,0.00062395,9.66e-05,0.0,0 STARLINK-4297,1 53543U 22101S   24121.01479018  .00009660  00000-0  62395-3 0  9995,2 53543  53.2173 230.8799 0001329  98.8007 261.3136 15.08854857 93845,6917.835,95.437,540.619,538.781,0.0
53543.0,STARLINK-4297,PAYLOAD,2024-04-30 13:04:22,15.08849246,0.0001531,53.2174,228.5005,92.0392,268.0776,0.00025827,3.826e-05,0.0,0 STARLINK-4297,1 53543U 22101S   24121.54470975  .00003826  00000-0  25827-3 0  9993,2 53543  53.2174 228.5005 0001531  92.0392 268.0776 15.08849246 93927,6917.852,95.437,540.776,538.658,0.0
53543.0,STARLINK-4297,PAYLOAD,2024-04-30 14:39:45,15.0884957,0.0001341,53.2165,228.2026,90.2967,269.8179,0.00024429,3.603e-05,0.0,0 STARLINK-4297,1 53543U 22101S   24121.61094883  .00003603  00000-0  24429-3 0  9991,2 53543  53.2165 228.2026 0001341  90.2967 269.8179 15.08849570 94628,6917.851,95.437,540.644,538.788,0.0
53543.0,STARLINK-4297,PAYLOAD,2024-05-01 00:12:04,15.08843984,0.0001384,53.216,226.4165,81.9507,278.1642,6.0011e-05,6.67e-06,0.0,0 STARLINK-4297,1 53543U 22101S   24122.00838904  .00000667  00000-0  60011-4 0  9990,2 53543  53.2160 226.4165 0001384  81.9507 278.1642 15.08843984 93991,6917.868,95.437,540.691,538.776,0.0
53543.0,STARLINK-4297,PAYLOAD,2024-05-01 12:55:09,15.08845798,0.0001249,53.215,224.0377,83.9282,276.1852,0.00012223,1.658e-05,0.0,0 STARLINK-4297,1 53543U 22101S   24122.53830767  .00001658  00000-0  12223-3 0  9999,2 53543  53.2150 224.0377 0001249  83.9282 276.1852 15.08845798 94763,6917.863,95.437,540.592,538.864,0.0
53543.0,STARLINK-4297,PAYLOAD,2024-05-02 12:45:57,15.08838902,0.0001456,53.2167,219.5817,71.6373,288.4777,-4.3436e-05,-9.79e-06,0.0,0 STARLINK-4297,1 53543U 22101S   24123.53191285 -.00000979  00000-0 -43436-4 0  9993,2 53543  53.2167 219.5817 0001456  71.6373 288.4777 15.08838902 94226,6917.884,95.438,540.756,538.742,0.0
53543.0,STARLINK-4297,PAYLOAD,2024-05-02 23:53:38,15.08849229,0.0001379,53.2172,217.4962,96.9684,263.1465,8.7997e-05,1.113e-05,0.0,0 STARLINK-4297,1 53543U 22101S   24123.99558472  .00001113  00000-0  87997-4 0  9997,2 53543  53.2172 217.4962 0001379  96.9684 263.1465 15.08849229 94294,6917.852,95.437,540.671,538.763,0.0
53543.0,STARLINK-4297,PAYLOAD,2024-05-03 12:36:43,15.08863711,0.0001437,53.2166,215.117,91.7389,268.3768,0.0005031,7.733e-05,0.0,0 STARLINK-4297,1 53543U 22101S   24124.52549781  .00007733  00000-0  50310-3 0  9992,2 53543  53.2166 215.1170 0001437  91.7389 268.3768 15.08863711 95064,6917.808,95.436,540.667,538.679,0.0
53543.0,STARLINK-4297,PAYLOAD,2024-05-04 12:27:31,15.08829205,0.0001225,53.2163,210.6572,96.4337,263.6795,-0.00016291,-2.879e-05,0.0,0 STARLINK-4297,1 53543U 22101S   24125.51911039 -.00002879  00000-0 -16291-3 0  9999,2 53543  53.2163 210.6572 0001225  96.4337 263.6795 15.08829205 94525,6917.913,95.438,540.626,538.931,0.0
53543.0,STARLINK-4297,PAYLOAD,2024-05-05 10:42:55,15.08838967,0.0001438,53.2175,206.4968,104.2822,255.833,0.00050361,7.736e-05,0.0,0 STARLINK-4297,1 53543U 22101S   24126.44647501  .00007736  00000-0  50361-3 0  9993,2 53543  53.2175 206.4968 0001438 104.2822 255.8330 15.08838967 94661,6917.884,95.438,540.743,538.754,0.0
53543.0,STARLINK-4297,PAYLOAD,2024-05-05 21:50:37,15.08848956,0.0001228,53.2167,204.411,97.2891,262.8241,0.00072507,0.00011273,0.0,0 STARLINK-4297,1 53543U 22101S   24126.91015363  .00011273  00000-0  72507-3 0  9997,2 53543  53.2167 204.4110 0001228  97.2891 262.8241 15.08848956 95426,6917.853,95.437,540.568,538.869,0.0
53543.0,STARLINK-4297,PAYLOAD,2024-05-06 12:09:04,15.08865405,0.0001252,53.2154,201.7375,109.0735,251.0393,0.00076653,0.00011941,0.0,0 STARLINK-4297,1 53543U 22101S   24127.50630584  .00011941  00000-0  76653-3 0  9999,2 53543  53.2154 201.7375 0001252 109.0735 251.0393 15.08865405 94820,6917.803,95.436,540.534,538.802,0.0
53543.0,STARLINK-4297,PAYLOAD,2024-05-06 21:41:23,15.08862097,8.79e-05,53.2142,199.9543,94.5162,265.5931,0.00055781,8.606e-05,0.0,0 STARLINK-4297,1 53543U 22101S   24127.90374229  .00008606  00000-0  55781-3 0  9997,2 53543  53.2142 199.9543 0000879  94.5162 265.5931 15.08862097 95573,6917.813,95.436,540.286,539.07,0.0
53543.0,STARLINK-4297,PAYLOAD,2024-05-07 11:59:52,15.08839051,0.0001199,53.2156,197.2762,87.5577,272.5553,-5.8188e-05,-1.214e-05,0.0,0 STARLINK-4297,1 53543U 22101S   24128.49990928 -.00001214  00000-0 -58188-4 0  9997,2 53543  53.2156 197.2762 0001199  87.5577 272.5553 15.08839051 94975,6917.883,95.438,540.578,538.919,0.0
53543.0,STARLINK-4297,PAYLOAD,2024-05-07 13:35:15,15.08841128,0.0001259,53.216,196.9789,89.4633,270.6504,-6.372e-06,-3.89e-06,0.0,0 STARLINK-4297,1 53543U 22101S   24128.56614889 -.00000389  00000-0 -63720-5 0  9995,2 53543  53.2160 196.9789 0001259  89.4633 270.6504 15.08841128 95677,6917.877,95.437,540.613,538.871,0.0
53543.0,STARLINK-4297,PAYLOAD,2024-05-08 13:26:02,15.08849367,0.0001267,53.2152,192.5189,81.3311,278.7824,0.0006508,0.00010087,0.0,0 STARLINK-4297,1 53543U 22101S   24129.55974925  .00010087  00000-0  65080-3 0  9998,2 53543  53.2152 192.5189 0001267  81.3311 278.7824 15.08849367 95821,6917.852,95.437,540.593,538.84,0.0
53543.0,STARLINK-4297,PAYLOAD,2024-05-08 21:22:58,15.08847305,0.000115,53.2139,191.0326,84.4117,275.7006,0.00043417,6.63e-05,0.0,0 STARLINK-4297,1 53543U 22101S   24129.89094915  .00006630  00000-0  43417-3 0  9996,2 53543  53.2139 191.0326 0001150  84.4117 275.7006 15.08847305 95876,6917.858,95.437,540.519,538.928,0.0
53543.0,STARLINK-4297,PAYLOAD,2024-05-09 03:44:30,15.08844539,0.0001266,53.2141,189.8426,84.0139,276.0997,0.00025086,3.707e-05,0.0,0 STARLINK-4297,1 53543U 22101S   24130.15590961  .00003707  00000-0  25086-3 0  9993,2 53543  53.2141 189.8426 0001266  84.0139 276.0997 15.08844539 95221,6917.867,95.437,540.607,538.856,0.0
53543.0,STARLINK-4297,PAYLOAD,2024-05-09 10:06:03,15.08845278,0.0001203,53.2145,188.6525,86.5084,273.6045,0.0002373,3.491e-05,0.0,0 STARLINK-4297,1 53543U 22101S   24130.42086947  .00003491  00000-0  23730-3 0  9991,2 53543  53.2145 188.6525 0001203  86.5084 273.6045 15.08845278 95957,6917.864,95.437,540.561,538.897,0.0
53543.0,STARLINK-4297,PAYLOAD,2024-05-10 03:35:17,15.08845947,0.0001081,53.2129,185.3814,93.613,266.4986,0.00017859,2.556e-05,0.0,0 STARLINK-4297,1 53543U 22101S   24131.14950849  .00002556  00000-0  17859-3 0  9998,2 53543  53.2129 185.3814 0001081  93.6130 266.4986 15.08845947 95372,6917.862,95.437,540.475,538.979,0.0
53543.0,STARLINK-4297,PAYLOAD,2024-05-10 13:07:37,15.08830209,9.4e-05,53.2151,183.6019,58.4871,301.6213,-0.0001272,-2.311e-05,0.0,0 STARLINK-4297,1 53543U 22101S   24131.54695814 -.00002311  00000-0 -12720-3 0  9993,2 53543  53.2151 183.6019 0000940  58.4871 301.6213 15.08830209 95436,6917.91,95.438,540.426,539.125,0.0
